OBJECT_NAME,OBJECT_ID,EPOCH,MEAN_MOTION,ECCENTRICITY,INCLINATION,RA_OF_ASC_NODE,ARG_OF_PERICENTER,MEAN_ANOMALY,EPHEMERIS_TYPE,CLASSIFICATION_TYPE,NORAD_CAT_ID,ELEMENT_SET_NO,REV_AT_EPOCH,BSTAR,MEAN_MOTION_DOT,MEAN_MOTION_DDOT
COSMOS 2058,1990-010A,2026-07-10T08:42:56.357856,15.12142220,.0007815,82.4673,286.4986,270.6823,89.3512,0,U,20465,999,96077,.88984332E-4,.1563E-4,0
SL-14 R/B,1990-010B,2026-07-10T07:13:02.809344,14.83661278,.0018208,82.5032,152.2384,254.6865,105.2338,0,U,20466,999,94666,.28010713E-4,.255E-5,0
SL-14 R/B,1990-018B,2026-07-09T05:18:55.427904,14.82231639,.00174122,82.5223,109.5139,55.2414,305.0437,0,U,20511,999,94058,.32342137E-4,.282E-5,0
HST,1990-037B,2026-07-10T11:33:00.139968,15.31028880,.00019851,28.4733,281.3383,60.3837,299.6957,0,U,20580,999,79214,.14062244E-3,.457E-4,0
SL-16 R/B,1990-046B,2026-07-09T00:05:31.331040,14.15022786,.0012487,70.9983,43.1285,125.2782,234.9511,0,U,20625,999,86555,-.1418481E-5,-.5E-6,0
COSMOS 2084,1990-055A,2026-07-10T05:34:25.415904,15.06213089,.00074895,62.7903,277.4294,313.3457,46.7018,0,U,20663,999,95477,.94633466E-4,.1191E-4,0
SL-6 R/B(2),1990-055D,2026-07-09T23:41:07.137024,15.04074554,.0044299,62.7799,197.7866,8.2887,351.8933,0,U,20666,999,95658,.95242126E-4,.1143E-4,0
SL-8 R/B,1990-078B,2026-07-08T21:52:07.419936,14.93408823,.03445479,82.9023,141.9992,324.9410,32.9553,0,U,20775,999,82736,.46254958E-3,.16326E-3,0
SL-8 R/B,1991-006B,2026-07-10T02:36:06.045120,13.77508472,.00236663,82.9416,78.9815,54.0951,103.6954,0,U,21088,999,78092,.38416804E-4,.54E-6,0
OKEAN-3,1991-039A,2026-07-10T01:42:07.531200,15.05417870,.001202,82.5136,218.1885,274.0321,85.9532,0,U,21397,999,88344,.97532825E-4,.1429E-4,0
COSMOS 2151,1991-042A,2026-07-10T14:24:33.960384,15.00505767,.00124212,82.4977,325.0847,11.0659,349.0835,0,U,21422,999,88162,.77200212E-4,.1001E-4,0
SL-14 R/B,1991-042B,2026-07-10T04:16:18.703200,14.81916373,.00165342,82.4936,105.3367,193.5129,166.5645,0,U,21423,999,87121,.23739738E-4,.212E-5,0
ERS-1,1991-050A,2026-07-09T16:26:40.890336,14.39530485,.00315534,98.7794,211.9326,198.2061,161.7999,0,U,21574,999,83328,.63975081E-4,.154E-5,0
ARIANE 40 R/B,1991-050F,2026-07-10T01:41:46.771872,14.42970155,.00043349,98.1864,238.5948,72.5548,287.6117,0,U,21610,999,83664,.57039232E-4,.149E-5,0
INTERCOSMOS 25,1991-086A,2026-07-10T01:23:27.058848,12.12235411,.14843161,82.6017,235.9699,213.0142,136.9149,0,U,21819,999,51151,.20442298E-3,.104E-4,0
SL-8 R/B,1992-008B,2026-07-09T16:34:31.251936,13.75982559,.00353586,82.9267,177.0557,151.6373,21.7909,0,U,21876,999,72619,.11466993E-3,.127E-5,0
SL-8 R/B,1992-020B,2026-07-10T03:12:09.859680,13.75550292,.00281875,82.9289,62.8117,318.2654,207.0612,0,U,21938,999,71796,.8080231E-5,.23E-6,0
USA 81,1992-023A,2026-07-09T13:24:53.107200,14.32403925,.00022291,85.0056,61.0934,66.9776,293.1651,0,U,21949,999,11223,.31648508E-4,.106E-5,0
COSMOS 2219,1992-076A,2026-07-09T06:15:18.546912,14.14110057,.00178747,71.0616,123.9288,6.9103,353.2263,0,U,22219,999,73556,-.20471525E-4,-.86E-6,0
SL-16 R/B,1992-076B,2026-07-10T06:00:28.425600,14.16875183,.00149833,71.0007,290.1978,268.4021,118.8885,0,U,22220,999,73919,.12539331E-3,.204E-5,0
COSMOS 2221,1992-080A,2026-07-10T11:22:09.230016,14.96595498,.00154312,82.5042,161.4535,134.6920,225.5562,0,U,22236,999,79915,.87475067E-4,.1025E-4,0
SL-16 R/B,1992-093B,2026-07-10T05:02:24.434592,14.15467002,.00025456,71.0224,107.0605,146.2385,213.8900,0,U,22285,999,73049,-.25133283E-4,-.97E-6,0
COSMOS 2228,1992-094A,2026-07-10T14:32:57.646464,14.97666880,.00160783,82.5190,119.6113,245.9653,113.9888,0,U,22286,999,79445,.94082369E-4,.113E-4,0
SL-16 R/B,1993-016B,2026-07-10T08:00:44.989920,14.15311492,.00090116,71.0084,317.5908,146.7754,213.3936,0,U,22566,999,71952,-.8780345E-5,-.65E-6,0
COSMOS 2242,1993-024A,2026-07-10T15:26:18.158208,14.96976148,.00144045,82.5196,149.1014,249.5342,110.4334,0,U,22626,999,79878,.92021182E-4,.1086E-4,0
SL-16 R/B,1993-059B,2026-07-09T22:25:35.289408,14.17250961,.00163713,70.9907,113.3346,16.5636,343.6019,0,U,22803,999,69685,-.77318143E-4,-.204E-5,0
ARIANE 40 R/B,1993-061H,2026-07-10T02:36:54.839520,14.32917286,.00094464,98.4808,257.4887,282.7691,77.2438,0,U,22830,999,71163,.49112529E-4,.91E-6,0
COSMOS 2278,1994-023A,2026-07-10T05:33:47.955456,14.14393857,.00098839,71.0531,278.7111,213.1584,146.8921,0,U,23087,999,66213,-.72576996E-4,-.186E-5,0
SL-16 R/B,1994-023B,2026-07-10T10:26:54.640896,14.15023929,.00014971,70.9979,173.1077,145.7011,214.4208,0,U,23088,999,66345,-.26038161E-4,-.98E-6,0
SL-16 R/B,1994-074B,2026-07-09T13:03:13.335840,14.79521229,.00067092,97.6985,216.3325,171.5538,306.2325,0,U,23343,999,70526,.40867955E-4,.256E-5,0
